[{"OBJECT_NAME":"ITUPSAT1","OBJECT_ID":"2009-051E","EPOCH":"2026-03-09T22:57:51.275808","MEAN_MOTION":14.60268809,"ECCENTRICITY":0.0007289,"INCLINATION":98.4113,"RA_OF_ASC_NODE":334.2386,"ARG_OF_PERICENTER":177.2915,"MEAN_ANOMALY":182.8326,"EPHEMERIS_TYPE":0,"CLASSIFICATION_TYPE":"U","NORAD_CAT_ID":35935,"ELEMENT_SET_NO":999,"REV_AT_EPOCH":87425,"BSTAR":0.00025648628,"MEAN_MOTION_DOT":1.19e-5,"MEAN_MOTION_DDOT":0},{"OBJECT_NAME":"FENGYUN 1C DEB","OBJECT_ID":"1999-025AET","EPOCH":"2026-03-09T17:09:20.409984","MEAN_MOTION":14.41084356,"ECCENTRICITY":0.0083429,"INCLINATION":98.8311,"RA_OF_ASC_NODE":335.4518,"ARG_OF_PERICENTER":79.7043,"MEAN_ANOMALY":281.3538,"EPHEMERIS_TYPE":0,"CLASSIFICATION_TYPE":"U","NORAD_CAT_ID":30432,"ELEMENT_SET_NO":999,"REV_AT_EPOCH":99987,"BSTAR":0.0006693046,"MEAN_MOTION_DOT":2.198e-5,"MEAN_MOTION_DDOT":0}]
